FENGYUN 1C DEB          
1 29773U 99025BP  17345.25840817  .00000139  00000-0  80433-4 0  9993
2 29773  98.7915  76.9103 0052474  93.7035 334.5033 14.22808823565885
